[{"district":"Mitte","forename":"Ramona","name":"Pop","party":"DIE GRÜNEN","address":"Bürgerbüro","street":"Wollinerstraße 16","zip":"10435 Berlin"},
{"district":"Mitte","forename":"Carola","name":"Bluhm","party":"DIE LINKE","address":"Bürgerbüro","street":"Erich-Weinert-Straße 6","zip":"10439 Berlin "},
{"district":"Mitte","forename":"Thomas","name":"Isenberg","party":"SPD","address":"Bürgerbüro","street":"Bartningallee 5","zip":"10557 Berlin"},
{"district":"Mitte","forename":"Bruni","name":"Wildenhein -Lauterbach","party":"SPD","address":"Bürgerbüro","street":"Müllerstraße 163","zip":"13353 Berlin"},
{"district":"Mitte","forename":"Ralf","name":"Wieland","party":"SPD","address":"Bürgerbüro","street":"Behmstr. 11","zip":"13357 Berlin"},
{"district":"Mitte","forename":"Dr. Maja","name":"Lasić","party":"SPD","address":"Bürgerbüro","street":"Brunnenstraße 73","zip":"13355 Berlin"},
{"district":"Mitte","forename":"Frank","name":"Henkel","party":"CDU","address":"Bürgerbüro","street":"Triftstraße 41","zip":"13353 Berlin"},
{"district":"Mitte","forename":"Sven ","name":"Rissmann","party":"CDU","address":"Bürgerbüro","street":"Triftstraße 41","zip":"13353 Berlin"},
{"district":"Mitte","forename":"Dr. Maren","name":"Jasper-Winter","party":"FDP","address":"Wahlkreisbüro","street":"Bergstraße 20","zip":"10115 Berlin"},
{"district":"Mitte","forename":"Carsten","name":"Ubbelohde","party":"AfD","address":"Preußischer Landtag","street":"Niederkirchnerstraße 5","zip":"10111 Berlin"},
{"district":"Mitte","forename":"Dr. Dieter","name":"Neuendorf","party":"AfD","address":"Preußischer Landtag","street":"Niederkirchnerstraße 5","zip":"10111 Berlin"},
{"district":"Mitte","forename":"Harald","name":"Laatsch","party":"AfD","address":"Preußischer Landtag","street":"Niederkirchnerstraße 5","zip":"10111 Berlin"},
{"district":"Mitte","forename":"Herbert","name":"Mohr","party":"AfD","address":"Preußischer Landtag","street":"Niederkirchnerstraße 5","zip":"10111 Berlin"},
{"district":"Mitte","forename":"Stefan Franz","name":"Kerker","party":"AfD","address":"Preußischer Landtag","street":"Niederkirchnerstraße 5","zip":"10111 Berlin"},
{"district":"Mitte","forename":"Thorsten","name":"Weiß","party":"AfD","address":"Preußischer Landtag","street":"Niederkirchnerstraße 5","zip":"10111 Berlin"},
{"district":"Mitte","forename":"June","name":"Tomiak","party":"DIE GRÜNEN","address":"Kiezbüro","street":"Soldiner Str. 42","zip":"13359 Berlin"},
{"district":"Mitte","forename":"Silke","name":"Gebel","party":"DIE GRÜNEN","address":"Grünes Bürgerbüro","street":"Brüsseler Straße 42A","zip":"13353 Berlin"},
{"district":"Mitte","forename":"Tobias","name":"Schulze","party":"DIE LINKE","address":"Sprengbüro","street":"Tegeler Straße 39","zip":"13353 Berlin"},
{"district":"Mitte","forename":"Stephan","name":"von Dassel","party":"DIE GRÜNEN","address":"Bezirksbürgermeister Rathaus Tiergarten","street":"Mathilde-Jacob-Platz 1","zip":"10551 Berlin"},
{"district":"Mitte","forename":"Ephraim","name":"Gothe","party":"SPD","address":"Stellv. Bezirksbürgermeister Rathaus Wedding","street":"Müllerstr. 146","zip":"13353 Berlin"},
{"district":"Mitte","forename":"Ramona","name":"Reiser","party":"DIE LINKE","address":"Bezirksstadträtin Rathaus Mitte","street":"Karl-Marx-Allee 31","zip":"10178 Berlin"},
{"district":"Mitte","forename":"Carsten","name":"Spallek","party":"CDU","address":"Bezirksstadtrat Rathaus Tiergarten","street":"Mathilde-Jacob-Platz 1","zip":"10551 Berlin"},
{"district":"Mitte","forename":"Sabine","name":"Weißler","party":"DIE GRÜNEN","address":"Bezirksstadträtin Rathaus Tiergarten","street":"Mathilde-Jacob-Platz 1","zip":"10551 Berlin"},
{"district":"Friedrichshain-Kreuzberg","forename":"Katrin","name":"Schmidberger","party":"DIE GRÜNEN","address":"Grünes Parlamentsbüro ","street":"Großbeerenstraße 16","zip":"10963 Berlin"},
{"district":"Friedrichshain-Kreuzberg","forename":"Marianne","name":"Burkert-Eulitz","party":"DIE GRÜNEN","address":"Dein Grünes Büro","street":"Wrangelstr. 92","zip":"10997 Berlin"},
{"district":"Friedrichshain-Kreuzberg","forename":"Dr. Turgut","name":"Altuǧ","party":"DIE GRÜNEN","address":"Grünes Parlamentsbüro ","street":"Großbeerenstraße 16","zip":"10963 Berlin"},
{"district":"Friedrichshain-Kreuzberg","forename":"Steffen","name":"Zillich","party":"DIE LINKE","address":"Bürgerbüro","street":"Weidenweg 17","zip":"10249 Berlin "},
{"district":"Friedrichshain-Kreuzberg","forename":"Kurt","name":"Wansner","party":"CDU","address":"Bürgerbüro","street":"Gubener Str. 20","zip":"10243 Berlin"},
{"district":"Friedrichshain-Kreuzberg","forename":"Bernd","name":"Schlömer","party":"FDP","address":"Wahlkreisbüro","street":"Dieffenbachstr. 72","zip":"10967 Berlin"},
{"district":"Friedrichshain-Kreuzberg","forename":"Dr.Susanne","name":"Kitschun","party":"SPD","address":"Bürgerbüro","street":"Karl-Marx-Allee 55","zip":"10243 Berlin "},
{"district":"Friedrichshain-Kreuzberg","forename":"Sven","name":"Heinemann","party":"SPD","address":"Bürgerbüro","street":"Grünberger Straße 4","zip":"10243 Berlin"},
{"district":"Friedrichshain-Kreuzberg","forename":"Frank","name":"Scheermesser","party":"AfD","address":"Preußischer Landtag","street":"Niederkirchnerstraße 5","zip":"10111 Berlin"},
{"district":"Friedrichshain-Kreuzberg","forename":"Antje","name":"Kapek","party":"DIE GRÜNEN","address":"Dein Grünes Büro","street":"Wrangelstr. 92","zip":"10997 Berlin"},
{"district":"Friedrichshain-Kreuzberg","forename":"Daniel","name":"Wesener","party":"DIE GRÜNEN","address":"Dein Grünes Büro","street":"Wrangelstr. 92","zip":"10997 Berlin"},
{"district":"Friedrichshain-Kreuzberg","forename":"Dr. Stefan","name":"Taschner","party":"DIE GRÜNEN","address":"Grünes Parlamentsbüro","street":"Großbeerenstraße 16","zip":"10963 Berlin"},
{"district":"Friedrichshain-Kreuzberg","forename":"Fadime","name":"Topaç","party":"DIE GRÜNEN","address":"Preußischer Landtag","street":"Niederkirchnerstraße 5","zip":"10111 Berlin"},
{"district":"Friedrichshain-Kreuzberg","forename":"Gabriele","name":"Gottwald","party":"DIE LINKE","address":"Wahlkreisbüro","street":"Zeughofstraße 22","zip":"10997 Berlin"},
{"district":"Friedrichshain-Kreuzberg","forename":"Monika","name":"Herrmann","party":"DIE GRÜNEN","address":"Bezirksbürgermeisterin Rathaus Friedrichshain-Kreuzberg","street":"Frankfurter Allee 35-37","zip":"10247 Berlin"},
{"district":"Friedrichshain-Kreuzberg","forename":"Knut","name":"Mildner-Spindler","party":"DIE LINKE","address":"Stellv. Bezirksbürgermeister Bürodienstgebäude Kreuzberg","street":"Yorckstr. 4-11","zip":"10965 Berlin"},
{"district":"Friedrichshain-Kreuzberg","forename":"Andy","name":"Hehmke","party":"SPD","address":"Bezirksstadtrat Rathaus Friedrichshain-Kreuzberg","street":"Frankfurter Allee 35-37","zip":"10247 Berlin"},
{"district":"Friedrichshain-Kreuzberg","forename":"Clara","name":"Herrmann","party":"DIE GRÜNEN","address":"Bezirksstadträtin Rathaus Friedrichshain-Kreuzberg","street":"Frankfurter Allee 35-37","zip":"10247 Berlin"},
{"district":"Friedrichshain-Kreuzberg","forename":"Florian","name":"Schmidt","party":"DIE GRÜNEN","address":"Bezirksstadtrat Bürodienstgebäude Kreuzberg","street":"Yorckstr. 4-11","zip":"10965 Berlin"},
{"district":"Pankow","forename":"Christian","name":"Buchholz","party":"AfD","address":"Preußischer Landtag","street":"Niederkirchnerstraße 5","zip":"10111 Berlin"},
{"district":"Pankow","forename":"Torsten","name":"Hofer","party":"SPD","address":"Bürgerbüro","street":"Kirchstraße 9-11","zip":"13158 Berlin"},
{"district":"Pankow","forename":"Torsten","name":"Schneider","party":"SPD","address":"Bürgerbüro","street":"Florastraße 94","zip":"13187 Berlin"},
{"district":"Pankow","forename":"Dennis","name":"Buchner","party":"SPD","address":"Wahlkreisbüro","street":"Bühringstraße 6","zip":"13086 Berlin"},
{"district":"Pankow","forename":"Udo","name":"Wolf","party":"DIE LINKE","address":"Bürgerbüro","street":"Erich-Weinert-Straße 6","zip":"10439 Berlin"},
{"district":"Pankow","forename":"Andreas","name":"Otto","party":"DIE GRÜNEN","address":"Wahlkreis-Büro","street":"Raumerstraße 24","zip":"10437 Berlin"},
{"district":"Pankow","forename":"Dr. Clara","name":"West","party":"SPD","address":"Bürgerbüro","street":"Naugarder Straße 43","zip":"10409 Berlin"},
{"district":"Pankow","forename":"Tino","name":"Schopf","party":"SPD","address":"Bürgerbüro","street":"Bernhard-Lichtenberg-Str. 23","zip":"10407 Berlin"},
{"district":"Pankow","forename":"Florian","name":"Swyter","party":"FDP","address":"Wahlkreisbüro","street":"Raumerstraße 29","zip":"10437 Berlin"},
{"district":"Pankow","forename":"Stephan","name":"Lenz","party":"CDU","address":"Bürgerbüro","street":"Lychener Str. 51","zip":"10437 Berlin"},
{"district":"Pankow","forename":"Georg","name":"Pazderski","party":"AfD","address":"Preußischer Landtag","street":"Niederkirchnerstraße 5","zip":"10111 Berlin"},
{"district":"Pankow","forename":"Hanno","name":"Bachmann","party":"AfD","address":"Wahlkreisbüro","street":"Alt Blankenburg 12 A","zip":"13129 Berlin"},
{"district":"Pankow","forename":"Ronald","name":"Gläser","party":"AfD","address":"Preußischer Landtag","street":"Niederkirchnerstraße 5","zip":"10111 Berlin"},
{"district":"Pankow","forename":"Bettina","name":"Jarasch","party":"DIE GRÜNEN","address":"Wahlkreisbüro","street":"Berliner Straße 89","zip":"13189 Berlin"},
{"district":"Pankow","forename":"Daniela","name":"Billig","party":"DIE GRÜNEN","address":"Kiezbüro","street":"Grellstraße 35","zip":"10409 Berlin"},
{"district":"Pankow","forename":"Stefanie","name":"Remlinger","party":"DIE GRÜNEN","address":"Bürger*innenbüro","street":"Meyerbeerstraße 30","zip":"13088 Berlin"},
{"district":"Pankow","forename":"Dr. Michail","name":"Nelken","party":"DIE LINKE","address":"Bürgerbüro","street":"John-Schehr-Straße 4","zip":"10407 Berlin"},
{"district":"Pankow","forename":"Katrin","name":"Seidel","party":"DIE LINKE","address":"Bürgerbüro","street":"Erich-Weinert-Straße 6","zip":"10439 Berlin"},
{"district":"Pankow","forename":"Sören","name":"Benn","party":"DIE LINKE","address":"Bezirksbürgermeisterin Rathaus Pankow","street":"Breite Straße 24a – 26","zip":"13187 Berlin"},
{"district":"Pankow","forename":"Vollrad","name":"Kuhn","party":"DIE GRÜNEN","address":"Stellv. Bezirksbürgermeister Bezirksamt Pankow","street":"Darßer Str. 203","zip":"13088 Berlin"},
{"district":"Pankow","forename":"Rona","name":"Tietje","party":"SPD","address":"Bezirksstadträtin Bürgeramt Prenzlauer Berg","street":"Fröbelstraße 17","zip":"10405 Berlin"},
{"district":"Pankow","forename":"Daniel","name":"Krüger","party":"AfD","address":"Bezirksstadtrat Bürgeramt Prenzlauer Berg","street":"Fröbelstraße 17","zip":"10405 Berlin"},
{"district":"Pankow","forename":"Dr. Torsten","name":"Kühne","party":"CDU","address":"Bezirksstadtrat Bürgeramt Weißensee","street":"Berliner Allee 252-260","zip":"13088 Berlin"},
{"district":"Charlottenburg-Wilmersdorf","forename":"Christian","name":"Hochgrebe","party":"SPD","address":"Kiezbüro","street":"Tauroggener Straße 45","zip":"10589 Berlin"},
{"district":"Charlottenburg-Wilmersdorf","forename":"Andreas","name":"Statzkowski","party":"CDU","address":"Bürgerbüro","street":"Fredericiastraße 9a","zip":"14050 Berlin"},
{"district":"Charlottenburg-Wilmersdorf","forename":"Ülker","name":"Radziwill","party":"SPD","address":"Bürgerbüro","street":"Friedbergstraße 36","zip":"14057 Berlin"},
{"district":"Charlottenburg-Wilmersdorf","forename":"Frank","name":"Jahnke","party":"SPD","address":"Bürgerbüro","street":"Goethestr. 15","zip":"10625 Berlin"},
{"district":"Charlottenburg-Wilmersdorf","forename":"Claudio","name":"Jupe","party":"CDU","address":"Bürgerbüro","street":"Karlsruher Str. 1","zip":"10711 Berlin"},
{"district":"Charlottenburg-Wilmersdorf","forename":"Franziska","name":"Becker","party":"SPD","address":"Wahlkreisbüro","street":"Fechnerstraße 6a","zip":"10717 Berlin"},
{"district":"Charlottenburg-Wilmersdorf","forename":"Florian","name":"Dörstelmann","party":"SPD","address":"Bürgerbüro","street":"Landauer Straße 8","zip":"14197 Berlin"},
{"district":"Charlottenburg-Wilmersdorf","forename":"Dirk","name":"Stettner","party":"CDU","address":"Wahlkreisbüro","street":"Charlottenburger Straße 84","zip":"13086 Berlin"},
{"district":"Charlottenburg-Wilmersdorf","forename":"Stefan","name":"Evers","party":"CDU","address":"Bürgerbüro","street":"Hohenzollerndamm 10","zip":"10717 Berlin"},
{"district":"Charlottenburg-Wilmersdorf","forename":"Henner","name":"Schmidt","party":"FDP","address":"Wahlkreisbüro","street":"Kantstr. 75","zip":"10627 Berlin"},
{"district":"Charlottenburg-Wilmersdorf","forename":"Marcel","name":"Luthe","party":"FDP","address":"Preußischer Landtag","street":"Niederkirchnerstraße 5","zip":"10111 Berlin"},
{"district":"Charlottenburg-Wilmersdorf","forename":"Dr. Hugh Theodore","name":"Bronson","party":"AfD","address":"Bezirksverband  Charlottenburg-Wilmersdorf","street":"Schillstraße 9","zip":"10785 Berlin"},
{"district":"Charlottenburg-Wilmersdorf","forename":"Marc","name":"Vallendar","party":"AfD","address":"Preußischer Landtag","street":"Niederkirchnerstraße 5","zip":"10111 Berlin"},
{"district":"Charlottenburg-Wilmersdorf","forename":"Dr. Petra","name":"Vandrey","party":"DIE GRÜNEN","address":"Preußischer Landtag","street":"Niederkirchnerstraße 5","zip":"10111 Berlin"},
{"district":"Charlottenburg-Wilmersdorf","forename":"Nicole","name":"Ludwig","party":"DIE GRÜNEN","address":"Wahlkreisbüro","street":"Knobelsdorffstr. 45","zip":"14059 Berlin"},
{"district":"Charlottenburg-Wilmersdorf","forename":"Dr. Michael","name":"Efler","party":"DIE LINKE","address":"Stadtbüro","street":"Behaimstraße 17","zip":"10585 Berlin"},
{"district":"Charlottenburg-Wilmersdorf","forename":"Reinhard","name":"Naumann","party":"SPD","address":"Bezirksbürgermeister Rathaus Charlottenburg","street":"Otto-Suhr-Allee 100","zip":"10585 Berlin"},
{"district":"Charlottenburg-Wilmersdorf","forename":"Arne","name":"Herz","party":"CDU","address":"Stellv. Bezirksbürgermeister Rathaus Charlottenburg","street":"Otto-Suhr-Allee 100","zip":"10585 Berlin"},
{"district":"Charlottenburg-Wilmersdorf","forename":"Oliver","name":"Schruoffeneger","party":"DIE GRÜNEN","address":"Bezirksstadtrat Rathaus Charlottenburg","street":"Otto-Suhr-Allee 100","zip":"10585 Berlin"},
{"district":"Charlottenburg-Wilmersdorf","forename":"Heike","name":"Schmitt-Schmelz","party":"SPD","address":"Bezirksstadträtin Rathaus Charlottenburg","street":"Otto-Suhr-Allee 100","zip":"10585 Berlin"},
{"district":"Charlottenburg-Wilmersdorf","forename":"Detlef","name":"Wagner","party":"CDU","address":"Bezirksstadtrat Rathaus Charlottenburg","street":"Otto-Suhr-Allee 100","zip":"10585 Berlin"},
{"district":"Spandau","forename":"Bettina","name":"Domer","party":"SPD","address":"Bürgerbüro","street":"Streitstraße 60","zip":"13587 Berlin"},
{"district":"Spandau","forename":"Raed","name":"Saleh","party":"SPD","address":"Bürgerbüro","street":"Bismarckstraße 64","zip":"13585 Berlin"},
{"district":"Spandau","forename":"Daniel","name":"Buchholz","party":"SPD","address":"Bürgerbüro","street":"Nonnendammallee 80","zip":"13629 Berlin"},
{"district":"Spandau","forename":"Heiko","name":"Melzer","party":"CDU","address":"Wahlkreisbüro","street":"Brunsbütteler Damm 269","zip":"13581 Berlin"},
{"district":"Spandau","forename":"Peter","name":"Trapp","party":"CDU","address":"Wahlkreisbüro","street":"Brunsbütteler Damm 269","zip":"13581 Berlin"},
{"district":"Spandau","forename":"Paul","name":"Fresdorf","party":"FDP","address":"Preußischer Landtag","street":"Niederkirchnerstraße 5","zip":"10111 Berlin"},
{"district":"Spandau","forename":"Tommy","name":"Tabor","party":"AfD","address":"Preußischer Landtag","street":"Niederkirchnerstraße 5","zip":"10111 Berlin"},
{"district":"Spandau","forename":"Helmut","name":"Kleebank","party":"SPD","address":"Bezirksbürgermeister Bezirksamt Spandau","street":"Carl-Schurz-Str. 2/6","zip":"13597 Berlin"},
{"district":"Spandau","forename":"Gerhard","name":"Hanke","party":"CDU","address":"Stellv. Bezirksbürgermeister Schulamt Spandau","street":"Carl-Schurz-Str. 8","zip":"13597 Berlin"},
{"district":"Spandau","forename":"Stephan","name":"Machulik","party":"SPD","address":"Bezirksstadtrat Bezirksamt Spandau","street":"Carl-Schurz-Str. 2/6","zip":"13597 Berlin"},
{"district":"Spandau","forename":"Andreas","name":"Otti","party":"AfD","address":"Bezirksstadtrat Bezirksamt Spandau","street":"Carl-Schurz-Str. 2/6","zip":"13597 Berlin"},
{"district":"Spandau","forename":"Frank","name":"Bewig","party":"CDU","address":"Bezirksstadtrat Bezirksamt Spandau","street":"Carl-Schurz-Str. 2/6","zip":"13597 Berlin"},
{"district":"Steglitz-Zehlendorf","forename":"Andreas","name":"Kugler","party":"SPD","address":"Bürgerbüro","street":"Moltkestraße 52","zip":"12203 Berlin"},
{"district":"Steglitz-Zehlendorf","forename":"Dr. Matthias","name":"Kollatz","party":"SPD","address":"Bürgerbüro","street":"Schützenstraße 15","zip":"12165 Berlin"},
{"district":"Steglitz-Zehlendorf","forename":"Christian","name":"Goiny","party":"CDU","address":"Bürgerbüro","street":"Hindenburgdamm 80","zip":"12203 Berlin"},
{"district":"Steglitz-Zehlendorf","forename":"Cornelia","name":"Seibeld","party":"CDU","address":"Bürgerbüro","street":"Hindenburgdamm 80","zip":"12203 Berlin"},
{"district":"Steglitz-Zehlendorf","forename":"Oliver","name":"Friederici","party":"CDU","address":"Bürgerbüro","street":"Hindenburgdamm 80","zip":"12203 Berlin"},
{"district":"Steglitz-Zehlendorf","forename":"Adrian","name":"Grasse","party":"CDU","address":"Wahlkreisbüro","street":"Onkel-Tom-Str. 1","zip":"14169 Berlin"},
{"district":"Steglitz-Zehlendorf","forename":"Stephan","name":"Standfuß","party":"CDU","address":"Bürgerbüro","street":"Onkel-Tom-Str. 1","zip":"14169 Berlin"},
{"district":"Steglitz-Zehlendorf","forename":"Sebastian","name":"Czaja","party":"FDP","address":"Preußischer Landtag","street":"Niederkirchnerstraße 5","zip":"10111 Berlin"},
{"district":"Steglitz-Zehlendorf","forename":"Thomas","name":"Seerig","party":"FDP","address":"Preußischer Landtag","street":"Niederkirchnerstraße 5","zip":"10111 Berlin"},
{"district":"Steglitz-Zehlendorf","forename":"Dr. Ina","name":"Czyborra","party":"SPD","address":"Bürgerbüro","street":"Herberger Weg 12","zip":"14169 Berlin"},
{"district":"Steglitz-Zehlendorf","forename":"Hans-Joachim","name":"Berg","party":"AfD","address":"Wahlkreisbüro","street":"Jungfernsteig 4 c","zip":"12207 Berlin"},
{"district":"Steglitz-Zehlendorf","forename":"Benedikt","name":"Lux","party":"DIE GRÜNEN","address":"Wahlkreisbüro","street":"Schildhornstraße 91","zip":"12163 Berlin"},
{"district":"Steglitz-Zehlendorf","forename":"Sabine","name":"Bangert","party":"DIE GRÜNEN","address":"Wahlkreisbüro","street":"Schildhornstraße 91","zip":"12163 Berlin"},
{"district":"Steglitz-Zehlendorf","forename":"Franziska","name":"Brychcy","party":"DIE LINKE","address":"Wahlkreisbüro »Roter Kreisel«","street":"Hindenburgdamm 58","zip":"12203 Berlin"},
{"district":"Steglitz-Zehlendorf","forename":"Andreas","name":"Wild","party":"fraktionslos (AfD)","address":"Wahlkreisbüro","street":"Jungfernsteig 4 c","zip":"12207 Berlin"},
{"district":"Steglitz-Zehlendorf","forename":"Cerstin","name":"Richter-Kotowski","party":"CDU","address":"Bezirksbürgermeisterin Rathaus Zehlendorf","street":"Kirchstr. 1/3","zip":"14163 Berlin"},
{"district":"Steglitz-Zehlendorf","forename":"Michael","name":"Karnetzki","party":"SPD","address":"Stellv. Bezirksbürgermeister Rathaus Zehlendorf","street":"Kirchstr. 1/3","zip":"14163 Berlin"},
{"district":"Steglitz-Zehlendorf","forename":"Maren","name":"Schellenberg","party":"DIE GRÜNEN","address":"Bezirksstadträtin Rathaus Zehlendorf","street":"Kirchstr. 1/3","zip":"14163 Berlin"},
{"district":"Steglitz-Zehlendorf","forename":"Frank","name":"Mückisch","party":"CDU","address":"Bezirksstadtrat Rathaus Lankwitz","street":"Hanna-Renate-Laurin-Platz 1","zip":"12247 Berlin"},
{"district":"Steglitz-Zehlendorf","forename":"Carolina","name":"Böhm","party":"SPD","address":"Bezirksstadträtin Rathaus Steglitz","street":"Schloßstraße 37","zip":"12163 Berlin"},
{"district":"Tempelhof-Schöneberg","forename":"Notker","name":"Schweikhardt","party":"DIE GRÜNEN","address":"Abgeordnetenbüro  In Schöneberg Nord","street":"Grunewaldstr. 8 ","zip":"10823 Berlin"},
{"district":"Tempelhof-Schöneberg","forename":"Catherina","name":"Pieroth-Manelli","party":"DIE GRÜNEN","address":"Forum Schöneberg","street":"Hauptstraße 8","zip":"10827 Berlin"},
{"district":"Tempelhof-Schöneberg","forename":"Dilek","name":"Kalayci","party":"SPD","address":"Bürgerbüro","street":"Schmiljanstr. 17","zip":"12161 Berlin"},
{"district":"Tempelhof-Schöneberg","forename":"Michael","name":"Müller","party":"SPD","address":"Bürgerbüro","street":"Manfred-von-Richthofen-Str 19","zip":"12101 Berlin"},
{"district":"Tempelhof-Schöneberg","forename":"Frank","name":"Zimmermann","party":"SPD","address":"Bürgerbüro","street":"Markgrafenstraße 16","zip":"12105 Berlin"},
{"district":"Tempelhof-Schöneberg","forename":"Florian","name":"Graf","party":"CDU","address":"Bürgerbüro","street":"Tauernallee 4","zip":"12107 Berlin"},
{"district":"Tempelhof-Schöneberg","forename":"Markus","name":"Klaer","party":"CDU","address":"CDU Kreisverband  Tempelhof-Schöneberg","street":"Kolonnenstr. 4","zip":"10827 Berlin"},
{"district":"Tempelhof-Schöneberg","forename":"Roman","name":"Simon","party":"CDU","address":"Bürgerbüro","street":"Kaiserstr. 144","zip":"12105 Berlin"},
{"district":"Tempelhof-Schöneberg","forename":"Holger","name":"Krestel","party":"FDP","address":"Wahlkreisbüro","street":"Hildburghauser Str. 29","zip":"12279 Berlin"},
{"district":"Tempelhof-Schöneberg","forename":"Melanie","name":"Kühnemann","party":"SPD","address":"Bürgerbüro","street":"John-Locke-Straße 19","zip":"12305 Berlin"},
{"district":"Tempelhof-Schöneberg","forename":"Frank-Christian","name":"Hansel","party":"AfD","address":"Wahlkreisbüro","street":"Kurfürstenstraße 79 / 79 A","zip":"10787 Berlin"},
{"district":"Tempelhof-Schöneberg","forename":"Dr. Kristin","name":"Brinker","party":"AfD","address":"Wahlkreisbüro","street":"Kurfürstenstraße 79 / 79 A","zip":"10787 Berlin"},
{"district":"Tempelhof-Schöneberg","forename":"Sebastian","name":"Walter","party":"DIE GRÜNEN","address":"Regenbogen-Büro","street":"Eisenacherstr. 6","zip":"10777 Berlin"},
{"district":"Tempelhof-Schöneberg","forename":"Harald","name":"Gindra","party":"DIE LINKE","address":"Kiezbüro","street":"Hildburghauser Straße 29","zip":"12279 Berlin"},
{"district":"Tempelhof-Schöneberg","forename":"Philipp","name":"Bertram","party":"DIE LINKE","address":"Stadtbüro","street":"Kaiserin-Augusta-Str. 75","zip":"12103 Berlin"},
{"district":"Tempelhof-Schöneberg","forename":"Angelika","name":"Schöttler","party":"SPD","address":"Bezirksbürgermeisterin Rathaus Schöneberg","street":"John-F.-Kennedy-Platz","zip":"10825 Berlin"},
{"district":"Tempelhof-Schöneberg","forename":"Jörn","name":"Oltmann","party":"DIE GRÜNEN","address":"Stellv. Bezirksbürgermeister Rathaus Schöneberg","street":"John-F.-Kennedy-Platz","zip":"10825 Berlin"},
{"district":"Tempelhof-Schöneberg","forename":"Christiane","name":"Heiß","party":"DIE GRÜNEN","address":"Bezirksstadträtin Rathaus Tempelhof","street":"Tempelhofer Damm 165","zip":"12099 Berlin"},
{"district":"Tempelhof-Schöneberg","forename":"Jutta","name":"Kaddatz","party":"CDU","address":"Bezirksstadträtin Rathaus Tempelhof","street":"Tempelhofer Damm 165","zip":"12099 Berlin"},
{"district":"Tempelhof-Schöneberg","forename":"Oliver","name":"Schworck","party":"SPD","address":"Bezirksstadtrat Agentur für Arbeit","street":"Alarichstr. 12-17","zip":"12105 Berlin"},
{"district":"Neukölln","forename":"Anja","name":"Kofbinger","party":"DIE GRÜNEN","address":"Grün vor Ort","street":"Friedelstr. 58","zip":"12047 Berlin "},
{"district":"Neukölln","forename":"Dr. Susanna","name":"Kahlefeld","party":"DIE GRÜNEN","address":"Grün vor Ort","street":"Friedelstr. 58","zip":"12047 Berlin "},
{"district":"Neukölln","forename":"Joschka","name":"Langenbrinck","party":"SPD","address":"Bürgerbüro","street":"Kranoldstraße 14","zip":"12051 Berlin"},
{"district":"Neukölln","forename":"Derya","name":"Çağlar","party":"SPD","address":"Preußischer Landtag","street":"Niederkirchnerstraße 5","zip":"10111 Berlin"},
{"district":"Neukölln","forename":"Dr. Robbin","name":"Juhnke","party":"CDU","address":"Wahlkreisbüro","street":"Alt-Buckow 6","zip":"12349 Berlin"},
{"district":"Neukölln","forename":"Hans-Christian","name":"Hausmann","party":"CDU","address":"Bürgerbüro","street":"Alt-Rudow 59","zip":"12355 Berlin"},
{"district":"Neukölln","forename":"Florian","name":"Kluckert","party":"FDP","address":"Wahlkreisbüro","street":"Großbeerenstraße 2-10","zip":"12107 Berlin"},
{"district":"Neukölln","forename":"Georg","name":"Kössler","party":"DIE GRÜNEN","address":"Grün im Kiez","street":"Braunschweiger Str. 71","zip":"12055 Berlin"},
{"district":"Neukölln","forename":"Anne","name":"Helm","party":"DIE LINKE","address":"Abgeordnetenbüro „RigoRosa“","street":"Schierker Straße 26","zip":"12051 Berlin"},
{"district":"Neukölln","forename":"Niklas","name":"Schrader","party":"DIE LINKE","address":"Abgeordnetenbüro „RigoRosa“","street":"Schierker Straße 26","zip":"12051 Berlin"},
{"district":"Neukölln","forename":"Dr. Nicola","name":"Böcker-Giannini","party":"SPD","address":"Wahlkreisbüro","street":"Bouchéstraße 70","zip":"12059 Berlin"},
{"district":"Neukölln","forename":"Martin","name":"Hikel","party":"SPD","address":"Bezirksbürgermeister Rathaus Neukölln","street":" Karl-Marx-Str. 83","zip":"12040 Berlin"},
{"district":"Neukölln","forename":"Falko","name":"Liecke","party":"CDU","address":"Stellv. Bezirksbürgermeister Rathaus Neukölln","street":" Karl-Marx-Str. 83","zip":"12040 Berlin"},
{"district":"Neukölln","forename":"Karin","name":"Korte","party":"SPD","address":"Bezirksstadträtin Rathaus Neukölln","street":" Karl-Marx-Str. 83","zip":"12040 Berlin"},
{"district":"Neukölln","forename":"Jochen","name":"Biedermann","party":"DIE GRÜNEN","address":"Bezirksstadtrat Rathaus Neukölln","street":" Karl-Marx-Str. 83","zip":"12040 Berlin"},
{"district":"Neukölln","forename":"Bernward","name":"Eberenz","party":"CDU","address":"Bezirksstadtrat Rathaus Neukölln","street":" Karl-Marx-Str. 83","zip":"12040 Berlin"},
{"district":"Treptow-Köpenick","forename":"Katalin","name":"Gennburg","party":"DIE LINKE","address":"Wahlkreisbüro „die Quelle“","street":"Moosdorfstraße 7-9","zip":"12435 Berlin"},
{"district":"Treptow-Köpenick","forename":"Lars","name":"Düsterhöft","party":"SPD","address":"Bürgerbüro","street":"Sterndamm 102","zip":"12487 Berlin"},
{"district":"Treptow-Köpenick","forename":"Frank","name":"Scholtysek","party":"AfD","address":"Preußischer Landtag","street":"Niederkirchnerstraße 5","zip":"10111 Berlin"},
{"district":"Treptow-Köpenick","forename":"Robert","name":"Schaddach","party":"SPD","address":"Bürgerbüro","street":"Grünauer Straße 8","zip":"12557 Berlin"},
{"district":"Treptow-Köpenick","forename":"Tom","name":"Schreiber","party":"SPD","address":"Bürgerbüro","street":"Wendenschloßstraße 137","zip":"12557 Berlin"},
{"district":"Treptow-Köpenick","forename":"Carsten","name":"Schatz","party":"DIE LINKE","address":"Bürgerbüro","street":"Friedrichshagener Straße 1A","zip":"12555 Berlin"},
{"district":"Treptow-Köpenick","forename":"Katrin","name":"Vogel","party":"CDU","address":"Bürgerbüro","street":"Grünauer Str. 9","zip":"12524 Berlin"},
{"district":"Treptow-Köpenick","forename":"Maik","name":"Penn","party":"CDU","address":"Wahlkreisbüro","street":"Stellingdamm 15","zip":"12555 Berlin"},
{"district":"Treptow-Köpenick","forename":"Stefan","name":"Förster","party":"FDP","address":"Preußischer Landtag","street":"Niederkirchnerstraße 5","zip":"10111 Berlin"},
{"district":"Treptow-Köpenick","forename":"Martin","name":"Trefzer","party":"AfD","address":"Wahlkreisbüro","street":"Winckelmannstraße 31","zip":"12487 Berlin"},
{"district":"Treptow-Köpenick","forename":"Harald","name":"Moritz","party":"DIE GRÜNEN","address":"Bürger*innenbüro in Alt-Treptow","street":"Karl-Kunger-Str. 68","zip":"12435 Berlin"},
{"district":"Treptow-Köpenick","forename":"Stefanie","name":"Fuchs","party":"DIE LINKE","address":"Bürgerbüro","street":"Allendeweg 1","zip":"12559 Berlin"},
{"district":"Treptow-Köpenick","forename":"Oliver","name":"Igel","party":"SPD","address":"Bezirksbürgermeister Rathaus Köpenick","street":"Alt-Köpenick 21","zip":"12555 Berlin"},
{"district":"Treptow-Köpenick","forename":"Gernot","name":"Klemm","party":"DIE LINKE","address":"Stellv. Bezirksbürgermeister Bezirksamt Treptow-Köpenick","street":"Groß-Berliner Damm 154","zip":"12489 Berlin"},
{"district":"Treptow-Köpenick","forename":"Rainer","name":"Hölmer","party":"SPD","address":"Bezirksstadtrat Rathaus Köpenick","street":"Alt-Köpenick 21","zip":"12555 Berlin"},
{"district":"Treptow-Köpenick","forename":"Bernd","name":"Geschanowski","party":"AfD","address":"Bezirksstadtrat Bezirksamt Treptow-Köpenick","street":"Hans-Schmidt-Str. 16","zip":"12489 Berlin"},
{"district":"Treptow-Köpenick","forename":"Cornelia","name":"Flader","party":"CDU","address":"Bezirksstadträtin Bezirksamt Treptow-Köpenick","street":"Hans-Schmidt-Straße 6/8 ","zip":"12489 Berlin"},
{"district":"Marzahn-Hellersdorf","forename":"Gunnar N.","name":"Lindemann","party":"AfD","address":"Wahlkreisbüro","street":"Allee der Kosmonauten 32 c","zip":"12681 Berlin"},
{"district":"Marzahn-Hellersdorf","forename":"Dr. Manuela","name":"Schmidt","party":"DIE LINKE","address":"Abgeordnetenbüro","street":"Helene-Weigel-Platz 7","zip":"12681 Berlin"},
{"district":"Marzahn-Hellersdorf","forename":"Jessica","name":"Bießmann","party":"fraktionslos (AfD)","address":"Wahlkreisbüro","street":"Allee der Kosmonauten 32 c","zip":"12681 Berlin"},
{"district":"Marzahn-Hellersdorf","forename":"Christian","name":"Gräff","party":"CDU","address":"Bürgerbüro","street":"Warener Str. 1","zip":"12683 Berlin"},
{"district":"Marzahn-Hellersdorf","forename":"Mario","name":"Czaja","party":"CDU","address":"Bürgerbüro","street":"Hönower Straße 67","zip":"12623 Berlin"},
{"district":"Marzahn-Hellersdorf","forename":"Kristian","name":"Ronneburg","party":"DIE LINKE","address":"Kiezbüro im Wahlkreis","street":"Cecilienplatz 5","zip":"12619 Berlin"},
{"district":"Marzahn-Hellersdorf","forename":"Iris","name":"Spranger","party":"SPD","address":"Bürgerbüro","street":"Köpenicker Str. 25","zip":"12683 Berlin"},
{"district":"Marzahn-Hellersdorf","forename":"Sven","name":"Kohlmeier","party":"SPD","address":"Bürgerbüro","street":"Heinrich-Grüber-Straße 8","zip":"12621 Berlin"},
{"district":"Marzahn-Hellersdorf","forename":"Jeannette","name":"Auricht","party":"AfD","address":"Wahlkreisbüro","street":"Allee der Kosmonauten 32 c","zip":"12681 Berlin"},
{"district":"Marzahn-Hellersdorf","forename":"Karsten","name":"Woldeit","party":"AfD","address":"Wahlkreisbüro","street":"Allee der Kosmonauten 32 c","zip":"12681 Berlin"},
{"district":"Marzahn-Hellersdorf","forename":"Stefan","name":"Ziller","party":"DIE GRÜNEN","address":"Bürgerbüro","street":"Heinrich-Grüber-Straße 12","zip":"12621 Berlin"},
{"district":"Marzahn-Hellersdorf","forename":"Regina","name":"Kittler","party":"DIE LINKE","address":"Wahlkreisbüro","street":"Helene-Weigel-Platz 7","zip":"12681 Berlin"},
{"district":"Marzahn-Hellersdorf","forename":"Dagmar","name":"Pohle","party":"DIE LINKE","address":"Bezirksbürgermeisterin Bürgeramt Helle Mitte","street":"Alice-Salomon-Platz 3","zip":"12627 Berlin"},
{"district":"Marzahn-Hellersdorf","forename":"Thomas","name":"Braun","party":"AfD","address":"Stellv. Bezirksbürgermeister Bezirksamt Marzahn-Hellersdorf","street":"Premnitzer Straße 11","zip":"12681 Berlin"},
{"district":"Marzahn-Hellersdorf","forename":"Gordon","name":"Lemm","party":"SPD","address":"Bezirksstadtrat Amt für Soziales","street":"Riesaer Straße 94","zip":"12627 Berlin"},
{"district":"Marzahn-Hellersdorf","forename":"Nadja","name":"Zivkovic","party":"CDU","address":"Bezirksstadträtin Bezirksamt Marzahn-Hellersdorf","street":"Wolfener Straße 32-34, Haus K, (3. Etage)","zip":"2681 Berlin"},
{"district":"Marzahn-Hellersdorf","forename":"Juliane","name":"Witt","party":"DIE LINKE","address":"Bezirksstadträtin Amt für Soziales","street":"Riesaer Straße 94","zip":"12627 Berlin"},
{"district":"Lichtenberg","forename":"Kay ","name":"Nerstheimer","party":"fraktionslos (AfD)","address":"Wahlkreisbüro","street":"Gehrenseestraße 19","zip":"13053 Berlin"},
{"district":"Lichtenberg","forename":"Dr. Wolfgang","name":"Albers","party":"DIE LINKE","address":"Bürgerbüro","street":"Zingster Straße 12","zip":"13051 Berlin"},
{"district":"Lichtenberg","forename":"Marion","name":"Platta","party":"DIE LINKE","address":"Wahlkreisbüro „Bürgerstübchen“","street":"Anton-Saefkow-Platz 4","zip":"10369 Berlin"},
{"district":"Lichtenberg","forename":"Sebastian","name":"Schlüsselburg","party":"DIE LINKE","address":"Wahlkreisbüro „Casa del Popolo“","street":"Buggenhagenstraße 19","zip":"10369 Berlin"},
{"district":"Lichtenberg","forename":"Hendrikje","name":"Klein","party":"DIE LINKE","address":"Wahlkreisbüro","street":"Alfred-Kowalke-Str. 14","zip":"10315 Berlin"},
{"district":"Lichtenberg","forename":"Harald","name":"Wolf","party":"DIE LINKE","address":"Wahlkreisbüro","street":"Alfred-Kowalke-Str. 14","zip":"10315 Berlin"},
{"district":"Lichtenberg","forename":"Danny","name":"Freymark","party":"CDU","address":"Bürgerbüro","street":"Warnitzer Str. 16","zip":"13057 Berlin"},
{"district":"Lichtenberg","forename":"Andreas","name":"Geisel","party":"SPD","address":"Bürgerbüro","street":"Dönhoffstr. 36 A","zip":"10318 Berlin"},
{"district":"Lichtenberg","forename":"Karin","name":"Halsch","party":"SPD","address":"Bürgerbüro","street":"Am Berl 13","zip":"13051 Berlin"},
{"district":"Lichtenberg","forename":"Ines","name":"Schmidt","party":"DIE LINKE","address":"Bürgerbüro","street":"Zingster Str. 12","zip":"13051 Berlin"},
{"district":"Lichtenberg","forename":"Michael","name":"Grunst","party":"DIE LINKE","address":"Bezirksbürgermeister Rathaus Lichtenberg","street":"Möllendorffstraße 6","zip":"10367 Berlin"},
{"district":"Lichtenberg","forename":"Birgit","name":"Monteiro","party":"SPD","address":"Stellv. Bezirksbürgermeisterin Rathaus Lichtenberg","street":"Möllendorffstraße 6","zip":"10367 Berlin"},
{"district":"Lichtenberg","forename":"Katrin","name":"Framke","party":"parteilos,  Für DIE LINKE","address":"Bezirksstadträtin Rathaus Lichtenberg","street":"Möllendorffstraße 6","zip":"10367 Berlin"},
{"district":"Lichtenberg","forename":"Wilfried","name":"Nünthel","party":"CDU","address":"Bezirksstadtrat Rathaus Lichtenberg","street":"Möllendorffstraße 6","zip":"10367 Berlin"},
{"district":"Lichtenberg","forename":"Dr. Frank","name":"Elischewski","party":"AfD","address":"Bezirksstadtrat Rathaus Lichtenberg","street":"Möllendorffstraße 6","zip":"10367 Berlin"},
{"district":"Reinickendorf","forename":"Burkard","name":"Dregger","party":"CDU","address":"Bürgerbüro","street":"Emmentaler Str. 92","zip":"13409 Berlin"},
{"district":"Reinickendorf","forename":"Emine","name":"Demirbüken -Wegner","party":"CDU","address":"Bürgerbüro","street":"Scharnweberstrasse 118","zip":"13405 Berlin"},
{"district":"Reinickendorf","forename":"Stephan","name":"Schmidt","party":"CDU","address":"Wahlkreisbüro","street":"Oraniendamm 68","zip":"13469 Berlin"},
{"district":"Reinickendorf","forename":"Tim-Christopher","name":"Zeelen","party":"CDU","address":"Bürgerbüro","street":"Waidmannsluster Damm 134","zip":"13469 Berlin"},
{"district":"Reinickendorf","forename":"Michael","name":"Dietmann","party":"CDU","address":"Wahlkreisbüro","street":"Oraniendamm 68","zip":"13469 Berlin"},
{"district":"Reinickendorf","forename":"Jürn Jakob","name":"Schultze -Berndt","party":"CDU","address":"Wahlkreisbüro","street":"Oraniendamm 68","zip":"13469 Berlin"},
{"district":"Reinickendorf","forename":"Sibylle","name":"Meister","party":"FDP","address":"Preußischer Landtag","street":"Niederkirchnerstraße 5","zip":"10111 Berlin"},
{"district":"Reinickendorf","forename":"Bettina","name":"König","party":"SPD","address":"Bürgerbüro","street":"Amendestr. 104","zip":"13409 Berlin"},
{"district":"Reinickendorf","forename":"Jörg","name":"Stroedter","party":"SPD","address":"Bürgerbüro","street":"Waidmannsluster Damm 149","zip":"13469 Berlin"},
{"district":"Reinickendorf","forename":"Eva Marie","name":"Plonske","party":"DIE GRÜNEN","address":"Preußischer Landtag","street":"Niederkirchnerstraße 5","zip":"10111 Berlin"},
{"district":"Reinickendorf","forename":"Hakan","name":"Taş","party":"DIE LINKE","address":"Bürgerbüro","street":"Alt-Reinickendorf 1","zip":"13407 Berlin"},
{"district":"Reinickendorf","forename":"Katina","name":"Schubert","party":"DIE LINKE","address":"Bürgerbüro “FUXXBAU”","street":"Senftenberger Ring 44d","zip":"13435 Berlin"},
{"district":"Reinickendorf","forename":"Frank","name":"Balzer","party":"CDU","address":"Bezirksbürgermeister Rathaus Reinickendorf","street":"Eichborndamm 215","zip":"13437 Berlin"},
{"district":"Reinickendorf","forename":"Uwe","name":"Brockhausen","party":"SPD","address":"Stellv. Bezirksbürgermeister Rathaus Reinickendorf","street":"Eichborndamm 215","zip":"13437 Berlin"},
{"district":"Reinickendorf","forename":"Katrin","name":"Schulze-Bermdt","party":"CDU","address":"Bezirksstadträtin Rathaus Reinickendorf","street":"Eichborndamm 215","zip":"13437 Berlin"},
{"district":"Reinickendorf","forename":"Tobias","name":"Dollase","party":"parteilos,  Für CDU","address":"Bezirksstadtrat Rathaus Reinickendorf","street":"Eichborndamm 215","zip":"13437 Berlin"},
{"district":"Reinickendorf","forename":"Sebastian","name":"Maack","party":"AfD","address":"Bezirksstadtrat Rathaus Reinickendorf","street":"Teichstr. 65","zip":"13407 Berlin"}]
